EUTELSAT 7A             
1 28187U 04008A   25358.73229578  .00000122  00000+0  00000+0 0  9997
2 28187   5.3864  74.1149 0001017 212.8532 290.9421  1.00271661 79605
EUTELSAT 174A           
1 28924U 05052A   25358.50895428  .00000028  00000+0  00000+0 0  9999
2 28924   3.7752  78.7163 0005954 196.8964 174.8826  1.00270205 50580
EUTELSAT HOTBIRD 13B    
1 29270U 06032A   25358.76635600  .00000176  00000+0  00000+0 0  9999
2 29270   1.2100  84.2663 0003155 189.2021 129.0727  1.00268943 45552
EUTELSAT HOTBIRD 13C    
1 33459U 08065A   25358.53582115 -.00000263  00000+0  00000+0 0  9996
2 33459   2.5000  81.2925 0003382 190.5837 324.0235  1.00273712 45594
EUTELSAT 36B            
1 36101U 09065A   25358.85947501  .00000133  00000+0  00000+0 0  9998
2 36101   0.0578  44.8944 0005762 228.1194 180.5016  1.00271733 58966
EUTELSAT KA-SAT 9A      
1 37258U 10069A   25358.10461281  .00000082  00000+0  00000+0 0  9995
2 37258   0.0502 337.1889 0001428 205.5958 316.7550  1.00267889 42253
EUTELSAT 7 WEST A       
1 37816U 11051A   25358.25902429 -.00000039  00000+0  00000+0 0  9990
2 37816   0.0628 349.0230 0005190 241.3671 308.5926  1.00271225 52126
EUTELSAT 16A            
1 37836U 11057A   25358.69164883  .00000125  00000+0  00000+0 0  9995
2 37836   0.0565 348.1184 0005844 287.2627  83.0595  1.00270993  5577
